[{"OBJECT_NAME":"STARLINK-30824","OBJECT_ID":"2023-167B","EPOCH":"2026-03-09T08:39:31.379040","MEAN_MOTION":15.26728143,"ECCENTRICITY":0.00010306,"INCLINATION":43.0003,"RA_OF_ASC_NODE":145.3645,"ARG_OF_PERICENTER":257.0695,"MEAN_ANOMALY":103.0041,"EPHEMERIS_TYPE":0,"CLASSIFICATION_TYPE":"U","NORAD_CAT_ID":58176,"ELEMENT_SET_NO":999,"REV_AT_EPOCH":13093,"BSTAR":0.00012600724,"MEAN_MOTION_DOT":3.121e-5,"MEAN_MOTION_DDOT":0},{"OBJECT_NAME":"TIANMU-1 13","OBJECT_ID":"2023-205C","EPOCH":"2026-03-10T00:00:50.036832","MEAN_MOTION":15.25862583,"ECCENTRICITY":0.00064025,"INCLINATION":97.3565,"RA_OF_ASC_NODE":92.1641,"ARG_OF_PERICENTER":331.9635,"MEAN_ANOMALY":28.1258,"EPHEMERIS_TYPE":0,"CLASSIFICATION_TYPE":"U","NORAD_CAT_ID":58647,"ELEMENT_SET_NO":999,"REV_AT_EPOCH":12237,"BSTAR":0.00032666188,"MEAN_MOTION_DOT":8.299e-5,"MEAN_MOTION_DDOT":0}]
